{"type":"FeatureCollection","features":[{"type":"Feature","properties":{"Nama":"Gedung STI"},"geometry":{"type":"Polygon","coordinates":[[[107.5753263,-6.8731177],[107.575261,-6.8735159],[107.5758194,-6.8736103],[107.5758796,-6.8732037],[107.5753263,-6.8731177]]]}},{"type":"Feature","properties":{"Nama":"Auditorium"},"geometry":{"type":"Polygon","coordinates":[[[107.5760697,-6.8732457],[107.5760147,-6.8736508],[107.576264,-6.8736984],[107.576317,-6.8732818],[107.5760697,-6.8732457]]]}},{"type":"Feature","properties":{"Nama":"Asrama Raflesia"},"geometry":{"type":"Polygon","coordinates":[[[107.5755723,-6.8724986],[107.5755054,-6.8729854],[107.5758536,-6.8730234],[107.5759395,-6.8725555],[107.5755723,-6.8724986]]]}},{"type":"Feature","properties":{"Nama":"Gedung FLTB"},"geometry":{"type":"Polygon","coordinates":[[[107.5762087,-6.8724352],[107.5761409,-6.8729018],[107.576524,-6.8729364],[107.5765802,-6.8724994],[107.5762087,-6.8724352]]]}},{"type":"Feature","properties":{"Nama":"Masjid Nurul Ilmi"},"geometry":{"type":"Polygon","coordinates":[[[107.5759967,-6.8726222],[107.5759385,-6.8727632],[107.5758903,-6.8729464],[107.5759753,-6.8729546],[107.5759851,-6.8729028],[107.5760092,-6.8728961],[107.576106,-6.8728918],[107.5761201,-6.872769],[107.5760672,-6.872767],[107.5761,-6.8726438],[107.5759967,-6.8726222]]]}},{"type":"Feature","properties":{"Nama":"Pendopo"},"geometry":{"type":"Polygon","coordinates":[[[107.5760342,-6.8731015],[107.5759971,-6.8730968],[107.5759811,-6.8731936],[107.5760946,-6.8732116],[107.5761135,-6.8730818],[107.5760419,-6.8730698],[107.5760342,-6.8731015]]]}},{"type":"Feature","properties":{"Nama":"Rektorat"},"geometry":{"type":"Polygon","coordinates":[[[107.5755902,-6.8736574],[107.5755578,-6.8738115],[107.5758789,-6.8738637],[107.5759113,-6.8737003],[107.5755902,-6.8736574]]]}},{"type":"Feature","properties":{"Nama":"Kantor Pos Indonesia"},"geometry":{"type":"Polygon","coordinates":[[[107.575877,-6.8741623],[107.5758607,-6.8742651],[107.5760023,-6.8742867],[107.5760176,-6.874184],[107.575877,-6.8741623]]]}},{"type":"Feature","properties":{"Nama":"pos satpam"},"geometry":{"type":"Polygon","coordinates":[[[107.5759675,-6.8740221],[107.5759576,-6.874101],[107.5760764,-6.8741237],[107.576084,-6.8740361],[107.5759675,-6.8740221]]]}},{"type":"Feature","properties":{"Nama":"Gedung Olahraga"},"geometry":{"type":"Polygon","coordinates":[[[107.576574,-6.8731032],[107.5765362,-6.8733987],[107.5768456,-6.873455],[107.5768834,-6.8731501],[107.576574,-6.8731032]]]}},{"type":"Feature","properties":{"Nama":"Asrama Gandaria"},"geometry":{"type":"Polygon","coordinates":[[[107.5750381,-6.8736941],[107.5750263,-6.8738934],[107.5751703,-6.8739215],[107.5751798,-6.8740059],[107.575416,-6.8740481],[107.5754349,-6.8738465],[107.5752129,-6.8737996],[107.575227,-6.8737222],[107.5750381,-6.8736941]]]}},{"type":"Feature","properties":{"Nama":"Lapangan Tenis"},"geometry":{"type":"Polygon","coordinates":[[[107.5767249,-6.8727446],[107.57666,-6.8730698],[107.5769995,-6.8731374],[107.5770546,-6.8727918],[107.5767249,-6.8727446]]]}},{"type":"Feature","properties":{"Nama":"Asrama Anggrek"},"geometry":{"type":"Polygon","coordinates":[[[107.5768358,-6.8721014],[107.5767769,-6.8725483],[107.5771539,-6.8726091],[107.5772175,-6.8721739],[107.5768358,-6.8721014]]]}},{"type":"Feature","properties":{"Nama":"Center of Technology"},"geometry":{"type":"Polygon","coordinates":[[[107.5765135,-6.8735595],[107.5764949,-6.8736741],[107.5766122,-6.8736939],[107.5766349,-6.8735754],[107.5765135,-6.8735595]]]}},{"type":"Feature","properties":{"Nama":"Kantin Oren"},"geometry":{"type":"Polygon","coordinates":[[[107.5765723,-6.8734533],[107.5765658,-6.8735078],[107.5767031,-6.8735196],[107.5767192,-6.8735367],[107.5767117,-6.8735874],[107.5768275,-6.8736072],[107.5768513,-6.8734977],[107.5765723,-6.8734533]]]}}]}